CCSDS_OMM_VERS = 2.0
CREATION_DATE  = 
ORIGINATOR     = 

OBJECT_NAME    = STARLINK-36711
OBJECT_ID      = 2026-041A
CENTER_NAME    = EARTH
REF_FRAME      = TEME
TIME_SYSTEM    = UTC
MEAN_ELEMENT_THEORY = SGP/SGP4

EPOCH          = 2026-04-01T03:59:20.804064
MEAN_MOTION    = 15.75310189
ECCENTRICITY   = .0003181
INCLINATION    = 53.1564
RA_OF_ASC_NODE = 310.2214
ARG_OF_PERICENTER = 178.1920
MEAN_ANOMALY   = 181.9112

EPHEMERIS_TYPE = 0
CLASSIFICATION_TYPE = U
NORAD_CAT_ID   = 68040
ELEMENT_SET_NO = 999
REV_AT_EPOCH   = 476
BSTAR          = .18388E-2
MEAN_MOTION_DOT = .2921E-2
MEAN_MOTION_DDOT = 0

CCSDS_OMM_VERS = 2.0
CREATION_DATE  = 
ORIGINATOR     = 

OBJECT_NAME    = STARLINK-36825
OBJECT_ID      = 2026-041B
CENTER_NAME    = EARTH
REF_FRAME      = TEME
TIME_SYSTEM    = UTC
MEAN_ELEMENT_THEORY = SGP/SGP4

EPOCH          = 2026-04-01T04:00:03.999744
MEAN_MOTION    = 15.75219054
ECCENTRICITY   = .0000703
INCLINATION    = 53.1572
RA_OF_ASC_NODE = 309.5875
ARG_OF_PERICENTER = 90.7887
MEAN_ANOMALY   = 221.1586

EPHEMERIS_TYPE = 0
CLASSIFICATION_TYPE = U
NORAD_CAT_ID   = 68041
ELEMENT_SET_NO = 999
REV_AT_EPOCH   = 599
BSTAR          = .43907E-4
MEAN_MOTION_DOT = .6091E-4
MEAN_MOTION_DDOT = 0

CCSDS_OMM_VERS = 2.0
CREATION_DATE  = 
ORIGINATOR     = 

OBJECT_NAME    = STARLINK-36925
OBJECT_ID      = 2026-041C
CENTER_NAME    = EARTH
REF_FRAME      = TEME
TIME_SYSTEM    = UTC
MEAN_ELEMENT_THEORY = SGP/SGP4

EPOCH          = 2026-04-01T04:00:03.999744
MEAN_MOTION    = 15.75207658
ECCENTRICITY   = .0000855
INCLINATION    = 53.1555
RA_OF_ASC_NODE = 310.2240
ARG_OF_PERICENTER = 63.1056
MEAN_ANOMALY   = 297.9371

EPHEMERIS_TYPE = 0
CLASSIFICATION_TYPE = U
NORAD_CAT_ID   = 68042
ELEMENT_SET_NO = 999
REV_AT_EPOCH   = 599
BSTAR          = .34071E-3
MEAN_MOTION_DOT = .51837E-3
MEAN_MOTION_DDOT = 0

CCSDS_OMM_VERS = 2.0
CREATION_DATE  = 
ORIGINATOR     = 

OBJECT_NAME    = STARLINK-36902
OBJECT_ID      = 2026-041D
CENTER_NAME    = EARTH
REF_FRAME      = TEME
TIME_SYSTEM    = UTC
MEAN_ELEMENT_THEORY = SGP/SGP4

EPOCH          = 2026-04-01T02:53:59.821728
MEAN_MOTION    = 15.75343125
ECCENTRICITY   = .0000563
INCLINATION    = 53.1587
RA_OF_ASC_NODE = 309.9203
ARG_OF_PERICENTER = 70.6156
MEAN_ANOMALY   = 289.4925

EPHEMERIS_TYPE = 0
CLASSIFICATION_TYPE = U
NORAD_CAT_ID   = 68043
ELEMENT_SET_NO = 999
REV_AT_EPOCH   = 476
BSTAR          = .18048E-2
MEAN_MOTION_DOT = .286914E-2
MEAN_MOTION_DDOT = 0

CCSDS_OMM_VERS = 2.0
CREATION_DATE  = 
ORIGINATOR     = 

OBJECT_NAME    = STARLINK-36966
OBJECT_ID      = 2026-041E
CENTER_NAME    = EARTH
REF_FRAME      = TEME
TIME_SYSTEM    = UTC
MEAN_ELEMENT_THEORY = SGP/SGP4

EPOCH          = 2026-04-01T03:53:17.200896
MEAN_MOTION    = 15.75354703
ECCENTRICITY   = .0001038
INCLINATION    = 53.1578
RA_OF_ASC_NODE = 310.1949
ARG_OF_PERICENTER = 64.4574
MEAN_ANOMALY   = 295.6554

EPHEMERIS_TYPE = 0
CLASSIFICATION_TYPE = U
NORAD_CAT_ID   = 68044
ELEMENT_SET_NO = 999
REV_AT_EPOCH   = 476
BSTAR          = .2101E-2
MEAN_MOTION_DOT = .336254E-2
MEAN_MOTION_DDOT = 0

CCSDS_OMM_VERS = 2.0
CREATION_DATE  = 
ORIGINATOR     = 

OBJECT_NAME    = STARLINK-36864
OBJECT_ID      = 2026-041F
CENTER_NAME    = EARTH
REF_FRAME      = TEME
TIME_SYSTEM    = UTC
MEAN_ELEMENT_THEORY = SGP/SGP4

EPOCH          = 2026-04-01T03:52:49.082880
MEAN_MOTION    = 15.75379642
ECCENTRICITY   = .0000652
INCLINATION    = 53.1581
RA_OF_ASC_NODE = 310.1924
ARG_OF_PERICENTER = 30.5863
MEAN_ANOMALY   = 329.5195

EPHEMERIS_TYPE = 0
CLASSIFICATION_TYPE = U
NORAD_CAT_ID   = 68045
ELEMENT_SET_NO = 999
REV_AT_EPOCH   = 476
BSTAR          = .20214E-2
MEAN_MOTION_DOT = .323354E-2
MEAN_MOTION_DDOT = 0

CCSDS_OMM_VERS = 2.0
CREATION_DATE  = 
ORIGINATOR     = 

OBJECT_NAME    = STARLINK-36321
OBJECT_ID      = 2026-041G
CENTER_NAME    = EARTH
REF_FRAME      = TEME
TIME_SYSTEM    = UTC
MEAN_ELEMENT_THEORY = SGP/SGP4

EPOCH          = 2026-04-01T00:10:53.214240
MEAN_MOTION    = 15.75270715
ECCENTRICITY   = .0001302
INCLINATION    = 53.1566
RA_OF_ASC_NODE = 310.6413
ARG_OF_PERICENTER = 47.9370
MEAN_ANOMALY   = 312.1761

EPHEMERIS_TYPE = 0
CLASSIFICATION_TYPE = U
NORAD_CAT_ID   = 68046
ELEMENT_SET_NO = 999
REV_AT_EPOCH   = 474
BSTAR          = .21794E-2
MEAN_MOTION_DOT = .34804E-2
MEAN_MOTION_DDOT = 0

CCSDS_OMM_VERS = 2.0
CREATION_DATE  = 
ORIGINATOR     = 

OBJECT_NAME    = STARLINK-36181
OBJECT_ID      = 2026-041H
CENTER_NAME    = EARTH
REF_FRAME      = TEME
TIME_SYSTEM    = UTC
MEAN_ELEMENT_THEORY = SGP/SGP4

EPOCH          = 2026-04-01T00:00:02.998944
MEAN_MOTION    = 15.75218076
ECCENTRICITY   = .000115
INCLINATION    = 53.1580
RA_OF_ASC_NODE = 310.4702
ARG_OF_PERICENTER = 56.7976
MEAN_ANOMALY   = 3.6447

EPHEMERIS_TYPE = 0
CLASSIFICATION_TYPE = U
NORAD_CAT_ID   = 68047
ELEMENT_SET_NO = 999
REV_AT_EPOCH   = 584
BSTAR          = .28267E-3
MEAN_MOTION_DOT = .42871E-3
MEAN_MOTION_DDOT = 0

CCSDS_OMM_VERS = 2.0
CREATION_DATE  = 
ORIGINATOR     = 

OBJECT_NAME    = STARLINK-36318
OBJECT_ID      = 2026-041J
CENTER_NAME    = EARTH
REF_FRAME      = TEME
TIME_SYSTEM    = UTC
MEAN_ELEMENT_THEORY = SGP/SGP4

EPOCH          = 2026-04-01T02:15:24.472800
MEAN_MOTION    = 15.75299896
ECCENTRICITY   = .0000847
INCLINATION    = 53.1588
RA_OF_ASC_NODE = 310.4791
ARG_OF_PERICENTER = 42.5254
MEAN_ANOMALY   = 317.5832

EPHEMERIS_TYPE = 0
CLASSIFICATION_TYPE = U
NORAD_CAT_ID   = 68048
ELEMENT_SET_NO = 999
REV_AT_EPOCH   = 475
BSTAR          = .15592E-2
MEAN_MOTION_DOT = .246101E-2
MEAN_MOTION_DDOT = 0

CCSDS_OMM_VERS = 2.0
CREATION_DATE  = 
ORIGINATOR     = 

OBJECT_NAME    = STARLINK-36885
OBJECT_ID      = 2026-041K
CENTER_NAME    = EARTH
REF_FRAME      = TEME
TIME_SYSTEM    = UTC
MEAN_ELEMENT_THEORY = SGP/SGP4

EPOCH          = 2026-04-01T02:14:55.298112
MEAN_MOTION    = 15.75316665
ECCENTRICITY   = .0000676
INCLINATION    = 53.1596
RA_OF_ASC_NODE = 310.4762
ARG_OF_PERICENTER = 129.4073
MEAN_ANOMALY   = 230.7008

EPHEMERIS_TYPE = 0
CLASSIFICATION_TYPE = U
NORAD_CAT_ID   = 68049
ELEMENT_SET_NO = 999
REV_AT_EPOCH   = 475
BSTAR          = .93092E-3
MEAN_MOTION_DOT = .145021E-2
MEAN_MOTION_DDOT = 0

CCSDS_OMM_VERS = 2.0
CREATION_DATE  = 
ORIGINATOR     = 

OBJECT_NAME    = STARLINK-36945
OBJECT_ID      = 2026-041L
CENTER_NAME    = EARTH
REF_FRAME      = TEME
TIME_SYSTEM    = UTC
MEAN_ELEMENT_THEORY = SGP/SGP4

EPOCH          = 2026-03-31T23:51:45.124992
MEAN_MOTION    = 15.75281936
ECCENTRICITY   = .0001487
INCLINATION    = 53.1591
RA_OF_ASC_NODE = 310.5542
ARG_OF_PERICENTER = 101.1964
MEAN_ANOMALY   = 258.9223

EPHEMERIS_TYPE = 0
CLASSIFICATION_TYPE = U
NORAD_CAT_ID   = 68050
ELEMENT_SET_NO = 999
REV_AT_EPOCH   = 474
BSTAR          = .13318E-2
MEAN_MOTION_DOT = .209025E-2
MEAN_MOTION_DDOT = 0

CCSDS_OMM_VERS = 2.0
CREATION_DATE  = 
ORIGINATOR     = 

OBJECT_NAME    = STARLINK-35911
OBJECT_ID      = 2026-041M
CENTER_NAME    = EARTH
REF_FRAME      = TEME
TIME_SYSTEM    = UTC
MEAN_ELEMENT_THEORY = SGP/SGP4

EPOCH          = 2026-03-31T23:45:12.905280
MEAN_MOTION    = 15.75305415
ECCENTRICITY   = .0000893
INCLINATION    = 53.1589
RA_OF_ASC_NODE = 310.5220
ARG_OF_PERICENTER = 54.0479
MEAN_ANOMALY   = 306.0624

EPHEMERIS_TYPE = 0
CLASSIFICATION_TYPE = U
NORAD_CAT_ID   = 68051
ELEMENT_SET_NO = 999
REV_AT_EPOCH   = 474
BSTAR          = .129E-2
MEAN_MOTION_DOT = .202496E-2
MEAN_MOTION_DDOT = 0

